COSMOS 2251 DEB         
1 33830U 93036BX  26074.26232185  .00006459  00000+0  88162-3 0  9997
2 33830  74.0315  48.7683 0040954 150.6381 318.5437 14.78233069908383
COSMOS 2251 DEB         
1 33832U 93036BZ  26074.25304684  .00008858  00000+0  17607-2 0  9992
2 33832  74.0549  33.2454 0020302  38.1754  84.1063 14.62112705897764
COSMOS 2251 DEB         
1 33835U 93036CC  26073.83457577  .00003998  00000+0  76481-3 0  9994
2 33835  74.0560 284.8148 0054617 312.8087  62.2256 14.63244714901361
COSMOS 2251 DEB         
1 33836U 93036CD  26074.27666537  .00010901  00000+0  13812-2 0  9992
2 33836  73.9949  76.0718 0027116 263.2964 116.7971 14.81576998654582
COSMOS 2251 DEB         
1 33837U 93036CE  26073.89949890  .00001166  00000+0  30023-3 0  9993
2 33837  74.0103 242.0542 0033392  80.9385 279.5552 14.50925817901325
COSMOS 2251 DEB         
1 33838U 93036CF  26074.16208112  .00001437  00000+0  38691-3 0  9990
2 33838  74.0392 336.6848 0025359  76.1914  47.9494 14.48695485899076
COSMOS 2251 DEB         
1 33839U 93036CG  26074.25588873  .00001337  00000+0  24442-3 0  9994
2 33839  74.0403  28.6583 0082767 118.4293   3.4618 14.64739533909348
COSMOS 2251 DEB         
1 33841U 93036CJ  26074.20288368  .00000487  00000+0  16945-3 0  9992
2 33841  74.0353 107.7867 0020460 174.3264 255.3029 14.38004789894436
COSMOS 2251 DEB         
1 33842U 93036CK  26074.31300903  .00000949  00000+0  28797-3 0  9996
2 33842  74.0330  47.7836 0045769 135.5569 224.9276 14.42931473896721
COSMOS 2251 DEB         
1 33844U 93036CM  26074.24214929  .00001172  00000+0  42360-3 0  9993
2 33844  74.0642 243.8582 0048767 243.9353 294.1926 14.33972437890519
COSMOS 2251 DEB         
1 33848U 93036CR  26073.80308991  .00004812  00000+0  13745-2 0  9999
2 33848  74.0314 186.2375 0043520 225.1537 301.6846 14.44846305891609
COSMOS 2251 DEB         
1 33892U 93036CV  26073.67386104  .00001268  00000+0  53104-3 0  9991
2 33892  73.8016 294.2944 0113599 308.6613 107.2715 14.23691388882636
COSMOS 2251 DEB         
1 33894U 93036CX  26074.19741241  .00001919  00000+0  19833-2 0  9991
2 33894  73.7654 206.0126 0571308 112.2387 254.0308 13.21528696819290
COSMOS 2251 DEB         
1 33896U 93036CZ  26074.23474184  .00001199  00000+0  53904-3 0  9995
2 33896  73.7692 348.7105 0125827 149.8044 336.0262 14.19352491880522
COSMOS 2251 DEB         
1 33899U 93036DC  26074.29608476  .00002758  00000+0  54294-3 0  9992
2 33899  74.0516 268.8172 0057179 306.2586 234.8213 14.62034721901913
COSMOS 2251 DEB         
1 33900U 93036DD  26074.07273537  .00002193  00000+0  46785-3 0  9996
2 33900  74.0193 183.8799 0048977 310.5698 232.9178 14.58797775903827
