[{"OBJECT_NAME":"COSMOS 2251 DEB","OBJECT_ID":"1993-036BX","EPOCH":"2026-03-15T06:17:44.607840","MEAN_MOTION":14.78233069,"ECCENTRICITY":0.00409546,"INCLINATION":74.0315,"RA_OF_ASC_NODE":48.7683,"ARG_OF_PERICENTER":150.6381,"MEAN_ANOMALY":318.5437,"EPHEMERIS_TYPE":0,"CLASSIFICATION_TYPE":"U","NORAD_CAT_ID":33830,"ELEMENT_SET_NO":999,"REV_AT_EPOCH":90838,"BSTAR":0.00088162234,"MEAN_MOTION_DOT":6.459e-5,"MEAN_MOTION_DDOT":0},{"OBJECT_NAME":"COSMOS 2251 DEB","OBJECT_ID":"1993-036BZ","EPOCH":"2026-03-15T06:04:23.246976","MEAN_MOTION":14.62112705,"ECCENTRICITY":0.00203026,"INCLINATION":74.0549,"RA_OF_ASC_NODE":33.2454,"ARG_OF_PERICENTER":38.1754,"MEAN_ANOMALY":84.1063,"EPHEMERIS_TYPE":0,"CLASSIFICATION_TYPE":"U","NORAD_CAT_ID":33832,"ELEMENT_SET_NO":999,"REV_AT_EPOCH":89776,"BSTAR":0.0017606548,"MEAN_MOTION_DOT":8.858e-5,"MEAN_MOTION_DDOT":0},{"OBJECT_NAME":"COSMOS 2251 DEB","OBJECT_ID":"1993-036CC","EPOCH":"2026-03-14T20:01:47.346528","MEAN_MOTION":14.63244714,"ECCENTRICITY":0.00546177,"INCLINATION":74.056,"RA_OF_ASC_NODE":284.8148,"ARG_OF_PERICENTER":312.8087,"MEAN_ANOMALY":62.2256,"EPHEMERIS_TYPE":0,"CLASSIFICATION_TYPE":"U","NORAD_CAT_ID":33835,"ELEMENT_SET_NO":999,"REV_AT_EPOCH":90136,"BSTAR":0.00076480649,"MEAN_MOTION_DOT":3.998e-5,"MEAN_MOTION_DDOT":0},{"OBJECT_NAME":"COSMOS 2251 DEB","OBJECT_ID":"1993-036CD","EPOCH":"2026-03-15T06:38:23.887968","MEAN_MOTION":14.81576998,"ECCENTRICITY":0.00271161,"INCLINATION":73.9949,"RA_OF_ASC_NODE":76.0718,"ARG_OF_PERICENTER":263.2964,"MEAN_ANOMALY":116.7971,"EPHEMERIS_TYPE":0,"CLASSIFICATION_TYPE":"U","NORAD_CAT_ID":33836,"ELEMENT_SET_NO":999,"REV_AT_EPOCH":65458,"BSTAR":0.0013812072,"MEAN_MOTION_DOT":0.00010901,"MEAN_MOTION_DDOT":0},{"OBJECT_NAME":"COSMOS 2251 DEB","OBJECT_ID":"1993-036CE","EPOCH":"2026-03-14T21:35:16.704960","MEAN_MOTION":14.50925817,"ECCENTRICITY":0.00333925,"INCLINATION":74.0103,"RA_OF_ASC_NODE":242.0542,"ARG_OF_PERICENTER":80.9385,"MEAN_ANOMALY":279.5552,"EPHEMERIS_TYPE":0,"CLASSIFICATION_TYPE":"U","NORAD_CAT_ID":33837,"ELEMENT_SET_NO":999,"REV_AT_EPOCH":90132,"BSTAR":0.0003002315,"MEAN_MOTION_DOT":1.166e-5,"MEAN_MOTION_DDOT":0},{"OBJECT_NAME":"COSMOS 2251 DEB","OBJECT_ID":"1993-036CF","EPOCH":"2026-03-15T03:53:23.808768","MEAN_MOTION":14.48695485,"ECCENTRICITY":0.00253595,"INCLINATION":74.0392,"RA_OF_ASC_NODE":336.6848,"ARG_OF_PERICENTER":76.1914,"MEAN_ANOMALY":47.9494,"EPHEMERIS_TYPE":0,"CLASSIFICATION_TYPE":"U","NORAD_CAT_ID":33838,"ELEMENT_SET_NO":999,"REV_AT_EPOCH":89907,"BSTAR":0.00038690976,"MEAN_MOTION_DOT":1.437e-5,"MEAN_MOTION_DDOT":0},{"OBJECT_NAME":"COSMOS 2251 DEB","OBJECT_ID":"1993-036CG","EPOCH":"2026-03-15T06:08:28.786272","MEAN_MOTION":14.64739533,"ECCENTRICITY":0.00827674,"INCLINATION":74.0403,"RA_OF_ASC_NODE":28.6583,"ARG_OF_PERICENTER":118.4293,"MEAN_ANOMALY":3.4618,"EPHEMERIS_TYPE":0,"CLASSIFICATION_TYPE":"U","NORAD_CAT_ID":33839,"ELEMENT_SET_NO":999,"REV_AT_EPOCH":90934,"BSTAR":0.00024442408,"MEAN_MOTION_DOT":1.337e-5,"MEAN_MOTION_DDOT":0},{"OBJECT_NAME":"COSMOS 2251 DEB","OBJECT_ID":"1993-036CJ","EPOCH":"2026-03-15T04:52:09.149952","MEAN_MOTION":14.38004789,"ECCENTRICITY":0.002046,"INCLINATION":74.0353,"RA_OF_ASC_NODE":107.7867,"ARG_OF_PERICENTER":174.3264,"MEAN_ANOMALY":255.3029,"EPHEMERIS_TYPE":0,"CLASSIFICATION_TYPE":"U","NORAD_CAT_ID":33841,"ELEMENT_SET_NO":999,"REV_AT_EPOCH":89443,"BSTAR":0.00016944949,"MEAN_MOTION_DOT":4.87e-6,"MEAN_MOTION_DDOT":0},{"OBJECT_NAME":"COSMOS 2251 DEB","OBJECT_ID":"1993-036CK","EPOCH":"2026-03-15T07:30:43.980192","MEAN_MOTION":14.42931473,"ECCENTRICITY":0.00457696,"INCLINATION":74.033,"RA_OF_ASC_NODE":47.7836,"ARG_OF_PERICENTER":135.5569,"MEAN_ANOMALY":224.9276,"EPHEMERIS_TYPE":0,"CLASSIFICATION_TYPE":"U","NORAD_CAT_ID":33842,"ELEMENT_SET_NO":999,"REV_AT_EPOCH":89672,"BSTAR":0.00028797376,"MEAN_MOTION_DOT":9.49e-6,"MEAN_MOTION_DDOT":0},{"OBJECT_NAME":"COSMOS 2251 DEB","OBJECT_ID":"1993-036CM","EPOCH":"2026-03-15T05:48:41.698656","MEAN_MOTION":14.33972437,"ECCENTRICITY":0.00487676,"INCLINATION":74.0642,"RA_OF_ASC_NODE":243.8582,"ARG_OF_PERICENTER":243.9353,"MEAN_ANOMALY":294.1926,"EPHEMERIS_TYPE":0,"CLASSIFICATION_TYPE":"U","NORAD_CAT_ID":33844,"ELEMENT_SET_NO":999,"REV_AT_EPOCH":89051,"BSTAR":0.00042360482,"MEAN_MOTION_DOT":1.172e-5,"MEAN_MOTION_DDOT":0},{"OBJECT_NAME":"COSMOS 2251 DEB","OBJECT_ID":"1993-036CR","EPOCH":"2026-03-14T19:16:26.968224","MEAN_MOTION":14.44846305,"ECCENTRICITY":0.004352,"INCLINATION":74.0314,"RA_OF_ASC_NODE":186.2375,"ARG_OF_PERICENTER":225.1537,"MEAN_ANOMALY":301.6846,"EPHEMERIS_TYPE":0,"CLASSIFICATION_TYPE":"U","NORAD_CAT_ID":33848,"ELEMENT_SET_NO":999,"REV_AT_EPOCH":89160,"BSTAR":0.0013744575,"MEAN_MOTION_DOT":4.812e-5,"MEAN_MOTION_DDOT":0},{"OBJECT_NAME":"COSMOS 2251 DEB","OBJECT_ID":"1993-036CV","EPOCH":"2026-03-14T16:10:21.593856","MEAN_MOTION":14.23691388,"ECCENTRICITY":0.01135994,"INCLINATION":73.8016,"RA_OF_ASC_NODE":294.2944,"ARG_OF_PERICENTER":308.6613,"MEAN_ANOMALY":107.2715,"EPHEMERIS_TYPE":0,"CLASSIFICATION_TYPE":"U","NORAD_CAT_ID":33892,"ELEMENT_SET_NO":999,"REV_AT_EPOCH":88263,"BSTAR":0.00053103813,"MEAN_MOTION_DOT":1.268e-5,"MEAN_MOTION_DDOT":0},{"OBJECT_NAME":"COSMOS 2251 DEB","OBJECT_ID":"1993-036CX","EPOCH":"2026-03-15T04:44:16.432224","MEAN_MOTION":13.21528696,"ECCENTRICITY":0.05713086,"INCLINATION":73.7654,"RA_OF_ASC_NODE":206.0126,"ARG_OF_PERICENTER":112.2387,"MEAN_ANOMALY":254.0308,"EPHEMERIS_TYPE":0,"CLASSIFICATION_TYPE":"U","NORAD_CAT_ID":33894,"ELEMENT_SET_NO":999,"REV_AT_EPOCH":81929,"BSTAR":0.0019832688,"MEAN_MOTION_DOT":1.919e-5,"MEAN_MOTION_DDOT":0},{"OBJECT_NAME":"COSMOS 2251 DEB","OBJECT_ID":"1993-036CZ","EPOCH":"2026-03-15T05:38:01.694976","MEAN_MOTION":14.19352491,"ECCENTRICITY":0.01258276,"INCLINATION":73.7692,"RA_OF_ASC_NODE":348.7105,"ARG_OF_PERICENTER":149.8044,"MEAN_ANOMALY":336.0262,"EPHEMERIS_TYPE":0,"CLASSIFICATION_TYPE":"U","NORAD_CAT_ID":33896,"ELEMENT_SET_NO":999,"REV_AT_EPOCH":88052,"BSTAR":0.00053903792,"MEAN_MOTION_DOT":1.199e-5,"MEAN_MOTION_DDOT":0},{"OBJECT_NAME":"COSMOS 2251 DEB","OBJECT_ID":"1993-036DC","EPOCH":"2026-03-15T07:06:21.723264","MEAN_MOTION":14.62034721,"ECCENTRICITY":0.00571798,"INCLINATION":74.0516,"RA_OF_ASC_NODE":268.8172,"ARG_OF_PERICENTER":306.2586,"MEAN_ANOMALY":234.8213,"EPHEMERIS_TYPE":0,"CLASSIFICATION_TYPE":"U","NORAD_CAT_ID":33899,"ELEMENT_SET_NO":999,"REV_AT_EPOCH":90191,"BSTAR":0.00054293773,"MEAN_MOTION_DOT":2.758e-5,"MEAN_MOTION_DDOT":0},{"OBJECT_NAME":"COSMOS 2251 DEB","OBJECT_ID":"1993-036DD","EPOCH":"2026-03-15T01:44:44.335968","MEAN_MOTION":14.58797775,"ECCENTRICITY":0.00489777,"INCLINATION":74.0193,"RA_OF_ASC_NODE":183.8799,"ARG_OF_PERICENTER":310.5698,"MEAN_ANOMALY":232.9178,"EPHEMERIS_TYPE":0,"CLASSIFICATION_TYPE":"U","NORAD_CAT_ID":33900,"ELEMENT_SET_NO":999,"REV_AT_EPOCH":90382,"BSTAR":0.00046785382,"MEAN_MOTION_DOT":2.193e-5,"MEAN_MOTION_DDOT":0}]
